{
    "links": {
        "self": "http://www.neowsapp.com/rest/v1/neo/3726801?api_key=iIulBulltgU6a56xZRHN4H3l9WmuAYTsLGpBGhQ2"
    },
    "id": "3726801",
    "neo_reference_id": "3726801",
    "name": "(2015 RL2)",
    "designation": "2015 RL2",
    "nasa_jpl_url": "http://ssd.jpl.nasa.gov/sbdb.cgi?sstr=3726801",
    "absolute_magnitude_h": 23.6,
    "estimated_diameter": {
        "kilometers": {
            "estimated_diameter_min": 0.0506471459,
            "estimated_diameter_max": 0.1132504611
        },
        "meters": {
            "estimated_diameter_min": 50.6471458835,
            "estimated_diameter_max": 113.2504610618
        },
        "miles": {
            "estimated_diameter_min": 0.0314706677,
            "estimated_diameter_max": 0.0703705522
        },
        "feet": {
            "estimated_diameter_min": 166.1651821003,
            "estimated_diameter_max": 371.5566426699
        }
    },
    "is_potentially_hazardous_asteroid": false,
    "close_approach_data": [
        {
            "close_approach_date": "2015-08-28",
            "close_approach_date_full": "2015-Aug-28 22:53",
            "epoch_date_close_approach": 1440802380000,
            "relative_velocity": {
                "kilometers_per_second": "5.0876973427",
                "kilometers_per_hour": "18315.7104337788",
                "miles_per_hour": "11380.6701859222"
            },
            "miss_distance": {
                "astronomical": "0.1992254543",
                "lunar": "77.4987017227",
                "kilometers": "29803703.613062341",
                "miles": "18519162.6801726658"
            },
            "orbiting_body": "Earth"
        }
    ],
    "orbital_data": {
        "orbit_id": "7",
        "orbit_determination_date": "2017-04-06 08:32:11",
        "first_observation_date": "2015-09-09",
        "last_observation_date": "2015-10-14",
        "data_arc_in_days": 35,
        "observations_used": 18,
        "orbit_uncertainty": "7",
        "minimum_orbit_intersection": ".199858",
        "jupiter_tisserand_invariant": "3.958",
        "epoch_osculation": "2459000.5",
        "eccentricity": ".3364675708687471",
        "semi_major_axis": "1.821488977767252",
        "inclination": "8.904202812227135",
        "ascending_node_longitude": "160.8539171829445",
        "orbital_period": "897.9212471775763",
        "perihelion_distance": "1.208617006053707",
        "perihelion_argument": "175.1185524960261",
        "aphelion_distance": "2.434360949480797",
        "perihelion_time": "2459061.053637109762",
        "mean_anomaly": "335.7224707311074",
        "mean_motion": ".4009260290160002",
        "equinox": "J2000",
        "orbit_class": {
            "orbit_class_type": "AMO",
            "orbit_class_description": "Near-Earth asteroid orbits similar to that of 1221 Amor",
            "orbit_class_range": "1.017 AU < q (perihelion) < 1.3 AU"
        }
    },
    "is_sentry_object": false
}